H1 CPF 01  gfz 2022 04 10 12  6002 tandemx   
H2 1003001  6202 36605    2022 04 10 12 59 42 2022 04 15 00 00 42   120 1 1  0 0 0
H9
10 0 59681  56142.000000  0   -1946067.939  -2433520.636   6132849.252
10 0 59681  56262.000000  0   -2643585.685  -2834215.699   5684433.395
10 0 59681  56382.000000  0   -3301409.657  -3173550.275   5136032.957
10 0 59681  56502.000000  0   -3906910.545  -3446382.789   4497260.908
10 0 59681  56622.000000  0   -4448289.406  -3648944.938   3779329.210
10 0 59681  56742.000000  0   -4914812.603  -3778894.690   2994855.013
10 0 59681  56862.000000  0   -5297030.656  -3835341.138   2157640.518
10 0 59681  56982.000000  0   -5586976.147  -3818840.444   1282427.477
10 0 59681  57102.000000  0   -5778333.531  -3731360.902    384631.609
10 0 59681  57222.000000  0   -5866577.446  -3576218.692   -519936.420
10 0 59681  57342.000000  0   -5849075.833  -3357986.300  -1415358.635
10 0 59681  57462.000000  0   -5725153.690  -3082374.605  -2285899.994
10 0 59681  57582.000000  0   -5496116.101  -2756092.601  -3116291.586
10 0 59681  57702.000000  0   -5165232.334  -2386689.650  -3892002.349
10 0 59681  57822.000000  0   -4737681.225  -1982383.622  -4599493.600
10 0 59681  57942.000000  0   -4220460.354  -1551880.121  -5226452.184
10 0 59681  58062.000000  0   -3622261.185  -1104186.434  -5761998.530
10 0 59681  58182.000000  0   -2953313.798   -648424.573  -6196865.549
10 0 59681  58302.000000  0   -2225205.744   -193647.954  -6523547.493
10 0 59681  58422.000000  0   -1450677.794    251334.603  -6736417.851
10 0 59681  58542.000000  0    -643401.618    678124.291  -6831814.944
10 0 59681  58662.000000  0     182256.779   1078886.481  -6808097.878
10 0 59681  58782.000000  0    1011485.564   1446490.141  -6665671.488
10 0 59681  58902.000000  0    1829286.494   1774631.623  -6406982.902
10 0 59681  59022.000000  0    2620740.901   2057941.840  -6036483.961
10 0 59681  59142.000000  0    3371277.926   2292073.687  -5560562.172
10 0 59681  59262.000000  0    4066939.713   2473768.908  -4987440.850
10 0 59681  59382.000000  0    4694642.632   2600904.259  -4327049.479
10 0 59681  59502.000000  0    5242428.629   2672515.100  -3590861.828
10 0 59681  59622.000000  0    5699699.625   2688795.553  -2791704.971
10 0 59681  59742.000000  0    6057432.510   2651075.599  -1943542.701
10 0 59681  59862.000000  0    6308367.879   2561774.157  -1061232.168
10 0 59681  59982.000000  0    6447166.011   2424328.894   -160261.742
10 0 59681  60102.000000  0    6470527.109   2243104.214    743527.280
10 0 59681  60222.000000  0    6377269.402   2023278.869   1634225.989
10 0 59681  60342.000000  0    6168368.367   1770718.618   2496145.803
10 0 59681  60462.000000  0    5846950.634   1491833.720   3314104.683
10 0 59681  60582.000000  0    5418244.188   1193426.716   4073701.968
10 0 59681  60702.000000  0    4889485.418    882534.140   4761576.814
10 0 59681  60822.000000  0    4269788.551    566267.125   5365643.970
10 0 59681  60942.000000  0    3569979.098    251653.162   5875305.983
10 0 59681  61062.000000  0    2802394.330    -54516.274   6281634.692
10 0 59681  61182.000000  0    1980659.336   -345827.925   6577520.828
10 0 59681  61302.000000  0    1119441.341   -616377.925   6757793.380
10 0 59681  61422.000000  0     234184.474   -860889.765   6819305.585
10 0 59681  61542.000000  0    -659168.426  -1074815.907   6760985.246
10 0 59681  61662.000000  0   -1544462.249  -1254422.275   6583851.453
10 0 59681  61782.000000  0   -2405620.412  -1396853.377   6290996.820
10 0 59681  61902.000000  0   -3226934.821  -1500176.898   5887537.267
10 0 59681  62022.000000  0   -3993354.563  -1563408.744   5380530.596
10 0 59681  62142.000000  0   -4690767.151  -1586518.398   4778858.947
10 0 59681  62262.000000  0   -5306265.419  -1570412.818   4093077.986
10 0 59681  62382.000000  0   -5828394.202  -1516899.007   3335234.402
10 0 59681  62502.000000  0   -6247371.562  -1428626.239   2518656.270
10 0 59681  62622.000000  0   -6555282.340  -1309010.150   1657719.162
10 0 59681  62742.000000  0   -6746237.759  -1162139.486    767587.713
10 0 59681  62862.000000  0   -6816493.234   -992667.175   -136059.320
10 0 59681  62982.000000  0   -6764523.587   -805689.027  -1037313.983
10 0 59681  63102.000000  0   -6591053.184   -606613.285  -1920328.350
10 0 59681  63222.000000  0   -6299040.650   -401024.492  -2769600.089
10 0 59681  63342.000000  0   -5893620.860   -194546.065  -3570250.562
10 0 59681  63462.000000  0   -5382002.410      7297.074  -4308289.047
10 0 59681  63582.000000  0   -4773325.632    199211.095  -4970855.308
10 0 59681  63702.000000  0   -4078486.846    376258.126  -5546438.216
10 0 59681  63822.000000  0   -3309932.048    533969.952  -6025067.339
10 0 59681  63942.000000  0   -2481425.627    668448.296  -6398473.698
10 0 59681  64062.000000  0   -1607801.062    776450.618  -6660220.525
10 0 59681  64182.000000  0    -704695.322    855460.092  -6805803.850
10 0 59681  64302.000000  0     211726.814    903738.674  -6832720.045
10 0 59681  64422.000000  0    1125053.740    920362.008  -6740504.359
10 0 59681  64542.000000  0    2018914.265    905236.351  -6530740.767
10 0 59681  64662.000000  0    2877265.315    859097.448  -6207037.621
10 0 59681  64782.000000  0    3684675.357    783491.157  -5774971.584
10 0 59681  64902.000000  0    4426598.765    680735.344  -5242000.858
10 0 59681  65022.000000  0    5089639.231    553864.267  -4617348.448
10 0 59681  65142.000000  0    5661797.811    406556.449  -3911853.723
10 0 59681  65262.000000  0    6132698.634    243046.329  -3137793.603
10 0 59681  65382.000000  0    6493788.238     68022.058  -2308676.684
10 0 59681  65502.000000  0    6738504.840   -113489.062  -1439011.172
10 0 59681  65622.000000  0    6862409.830   -296244.589   -544049.681
10 0 59681  65742.000000  0    6863278.457   -474917.067    360481.961
10 0 59681  65862.000000  0    6741147.956   -644228.057   1258667.680
10 0 59681  65982.000000  0    6498319.888   -799082.023   2134689.676
10 0 59681  66102.000000  0    6139316.913   -934696.539   2973117.015
10 0 59681  66222.000000  0    5670792.702  -1046725.335   3759185.363
10 0 59681  66342.000000  0    5101401.875  -1131371.028   4479062.051
10 0 59681  66462.000000  0    4441630.572  -1185485.864   5120092.969
10 0 59681  66582.000000  0    3703592.943  -1206655.677   5671024.550
10 0 59681  66702.000000  0    2900799.482  -1193266.725   6122198.663
10 0 59681  66822.000000  0    2047901.892  -1144554.781   6465716.660
10 0 59681  66942.000000  0    1160420.922  -1060635.045   6695572.380
10 0 59681  67062.000000  0     254459.751   -942511.927   6807751.856
10 0 59681  67182.000000  0    -653589.550   -792068.501   6800297.826
10 0 59681  67302.000000  0   -1547341.612   -612036.691   6673340.737
10 0 59681  67422.000000  0   -2410711.987   -405947.787   6429096.380
10 0 59681  67542.000000  0   -3228205.467   -178064.276   6071830.286
10 0 59681  67662.000000  0   -3985195.641     66705.984   5607788.942
10 0 59681  67782.000000  0   -4668191.082    322911.833   5045096.776
10 0 59681  67902.000000  0   -5265082.374    584675.164   4393619.526
10 0 59681  68022.000000  0   -5765365.464    845819.814   3664795.475
10 0 59681  68142.000000  0   -6160335.230   1100010.334   2871437.070
10 0 59681  68262.000000  0   -6443246.750   1340897.620   2027506.066
10 0 59681  68382.000000  0   -6609439.314   1562267.475   1147864.999
10 0 59681  68502.000000  0   -6656420.418   1758189.210    248009.393
10 0 59681  68622.000000  0   -6583905.058   1923160.054   -656214.109
10 0 59681  68742.000000  0   -6393809.877   2052240.877  -1548895.797
10 0 59681  68862.000000  0   -6090203.793   2141180.790  -2414350.792
10 0 59681  68982.000000  0   -5679215.723   2186527.723  -3237402.363
10 0 59681  69102.000000  0   -5168900.687   2185721.083  -4003652.797
10 0 59681  69222.000000  0   -4569070.120   2137164.346  -4699735.128
10 0 59681  69342.000000  0   -3891091.673   2040276.954  -5313541.995
10 0 59681  69462.000000  0   -3147664.233   1895524.837  -5834427.776
10 0 59681  69582.000000  0   -2352574.288   1704429.325  -6253383.109
10 0 59681  69702.000000  0   -1520436.327   1469554.252  -6563180.244
10 0 59681  69822.000000  0    -666423.756   1194471.654  -6758485.116
10 0 59681  69942.000000  0     194003.454    883707.174  -6835938.809
10 0 59681  70062.000000  0    1045371.026    542667.015  -6794209.020
10 0 59681  70182.000000  0    1872462.643    177545.863  -6634012.727
10 0 59681  70302.000000  0    2660586.074   -204782.953  -6358104.287
10 0 59681  70422.000000  0    3395829.314   -596892.637  -5971233.777
10 0 59681  70542.000000  0    4065303.640   -990942.573  -5480072.591
10 0 59681  70662.000000  0    4657369.723  -1378829.970  -4893110.129
10 0 59681  70782.000000  0    5161845.464  -1752352.811  -4220519.037
10 0 59681  70902.000000  0    5570189.070  -2103379.531  -3473989.370
10 0 59681  71022.000000  0    5875654.171  -2424022.414  -2666533.730
10 0 59681  71142.000000  0    6073412.538  -2706811.194  -1812265.051
10 0 59681  71262.000000  0    6160640.414  -2944862.325   -926151.031
10 0 59681  71382.000000  0    6136566.735  -3132039.914    -23749.801
10 0 59681  71502.000000  0    6002480.601  -3263104.147    879068.684
10 0 59681  71622.000000  0    5761698.373  -3333843.424   1766409.700
10 0 59681  71742.000000  0    5419487.674  -3341185.537   2622644.016
10 0 59681  71862.000000  0    4982951.855  -3283285.536   3432691.019
10 0 59681  71982.000000  0    4460878.917  -3159587.254   4182291.114
10 0 59681  72102.000000  0    3863559.698  -2970858.397   4858260.168
10 0 59681  72222.000000  0    3202577.634  -2719198.991   5448724.076
10 0 59681  72342.000000  0    2490575.958  -2408020.704   5943325.261
10 0 59681  72462.000000  0    1741009.905  -2041999.842   6333400.041
10 0 59681  72582.000000  0     967887.883  -1627005.290   6612124.811
99
